IRIDIUM 155             
1 43573U 18061E   23257.90952434  .00000366  00000+0  12356-3 0  9997
2 43573  86.3941 117.2813 0002308  82.6549 277.4909 14.34220406269129
IRIDIUM 154             
1 43574U 18061F   23257.89049095 -.00000110  00000+0 -46190-4 0  9999
2 43574  86.3945 117.3733 0001920  92.1551 267.9865 14.34217225269179
IRIDIUM 163             
1 43575U 18061G   23258.15053983  .00000190  00000+0  60923-4 0  9997
2 43575  86.3942 117.2115 0002030  88.0937 272.0491 14.34217853269185
IRIDIUM 156             
1 43576U 18061H   23257.56701862  .00000405  00000+0  13753-3 0  9995
2 43576  86.3940 117.4616 0002042  78.4387 281.7038 14.34220661269092
IRIDIUM 164             
1 43577U 18061J   23258.03636996  .00000054  00000+0  12112-4 0  9993
2 43577  86.3942 117.2900 0001859  83.6162 276.5246 14.34215778269202
IRIDIUM 159             
1 43578U 18061K   23257.58604827  .00000391  00000+0  13252-3 0  9990
2 43578  86.3941 117.4365 0002113  87.5310 272.6128 14.34220159269105
IRIDIUM 180             
1 43922U 19002A   23257.86460838  .00000195  00000+0  62572-4 0  9994
2 43922  86.3949  54.1480 0001954  96.0708 264.0711 14.34220759244752
IRIDIUM 176             
1 43923U 19002B   23257.96504500  .00000600  00000+0  91238-4 0  9993
2 43923  86.6076  54.1408 0002258  89.9992 270.1484 14.72237841251206
IRIDIUM 168             
1 43924U 19002C   23257.85828387  .00000187  00000+0  59631-4 0  9995
2 43924  86.3950  54.1995 0002044  93.4003 266.7427 14.34218526244737
IRIDIUM 173             
1 43925U 19002D   23257.84560084  .00000206  00000+0  66498-4 0  9993
2 43925  86.3946  54.1349 0002116  94.2462 265.8976 14.34219938244719
IRIDIUM 169             
1 43926U 19002E   23257.78020135  .00000178  00000+0  51780-4 0  9991
2 43926  86.4167  85.7988 0005221  70.8037 289.3725 14.38603517245531
IRIDIUM 172             
1 43927U 19002F   23257.83923707  .00000207  00000+0  66797-4 0  9992
2 43927  86.3947  54.1426 0002023  94.6655 265.4771 14.34217576244729
IRIDIUM 175             
1 43928U 19002G   23257.89082783  .00001649  00000+0  25764-3 0  9998
2 43928  86.1516  42.9301 0002291  92.6307 267.5172 14.72221018251180
IRIDIUM 171             
1 43929U 19002H   23257.40160467  .00000181  00000+0  57479-4 0  9991
2 43929  86.3954  54.5202 0001938  93.8269 266.3148 14.34219828244653
IRIDIUM 170             
1 43930U 19002J   23257.97119691  .00000600  00000+0  91286-4 0  9998
2 43930  86.6076  54.1427 0002327  88.8409 271.3074 14.72234059251210
IRIDIUM 167             
1 43931U 19002K   23257.88364483  .00000210  00000+0  68051-4 0  9991
2 43931  86.3946  54.1374 0001963  92.9241 267.2179 14.34219780244720
IRIDIUM 181             
1 56726U 23068S   23257.81126831  .00000177  00000+0  46359-4 0  9999
2 56726  86.8571  94.5325 0001670  49.6318 310.5029 14.43571019 17267
IRIDIUM 177             
1 56727U 23068T   23258.00500326  .00000699  00000+0  88547-4 0  9991
2 56727  86.1924  86.4828 0002059  96.3706 263.7750 14.80216030 17522
IRIDIUM 174             
1 56728U 23068U   23257.79676279  .00000791  00000+0  10062-3 0  9997
2 56728  86.1931  86.6631 0002402  89.9042 270.2454 14.80216080 17493
IRIDIUM 178             
1 56729U 23068V   23257.79099246  .00000717  00000+0  90931-4 0  9993
2 56729  86.5726  91.0366 0002436  94.6033 265.5466 14.80206962 17493
IRIDIUM 179             
1 56730U 23068W   23257.78559620  .00000718  00000+0  91054-4 0  9999
2 56730  86.6736  91.6939 0002301  95.1346 265.0138 14.80207168 17493
